{"type": "FeatureCollection", "features": [{"type": "Feature", "properties": {"norad_id": 24876, "name": "GPS BIIR-2  (PRN 13)", "group": "gps-ops", "lat": 44.20331410157981, "lon": -115.79282132529126, "alt_km": 20069.36326147756, "timestamp": "2025-12-25T20:42:38.946432+00:00", "meta": {"OBJECT_NAME": "GPS BIIR-2  (PRN 13)", "OBJECT_ID": "1997-035A", "EPOCH": "2025-12-25T04:43:59.117664", "MEAN_MOTION": 2.00563692, "ECCENTRICITY": 0.00968489, "INCLINATION": 55.901, "RA_OF_ASC_NODE": 105.3817, "ARG_OF_PERICENTER": 56.9385, "MEAN_ANOMALY": 303.9881, "EPHEMERIS_TYPE": 0, "CLASSIFICATION_TYPE": "U", "NORAD_CAT_ID": 24876, "ELEMENT_SET_NO": 999, "REV_AT_EPOCH": 20846, "BSTAR": 0, "MEAN_MOTION_DOT": 2.8e-07, "MEAN_MOTION_DDOT": 0}, "tle": {"line1": "1 24876U 97035A   25359.19721201  .00000028  00000+0  00000+0 0  9996", "line2": "2 24876  55.9010 105.3817 0096848  56.9385 303.9881  2.00563692208460"}}, "geometry": {"type": "Point", "coordinates": [-115.79282132529126, 44.20331410157981]}}, {"type": "Feature", "properties": {"norad_id": 26360, "name": "GPS BIIR-4  (PRN 20)", "group": "gps-ops", "lat": -26.888127502779977, "lon": -132.91936050053707, "alt_km": 20095.522044804, "timestamp": "2025-12-25T20:42:38.946473+00:00", "meta": {"OBJECT_NAME": "GPS BIIR-4  (PRN 20)", "OBJECT_ID": "2000-025A", "EPOCH": "2025-12-25T02:59:32.925696", "MEAN_MOTION": 2.00566595, "ECCENTRICITY": 0.00388927, "INCLINATION": 55.0525, "RA_OF_ASC_NODE": 26.337, "ARG_OF_PERICENTER": 243.1637, "MEAN_ANOMALY": 157.4834, "EPHEMERIS_TYPE": 0, "CLASSIFICATION_TYPE": "U", "NORAD_CAT_ID": 26360, "ELEMENT_SET_NO": 999, "REV_AT_EPOCH": 18778, "BSTAR": 0, "MEAN_MOTION_DOT": -5.6e-07, "MEAN_MOTION_DDOT": 0}, "tle": {"line1": "1 26360U 00025A   25359.12468664 -.00000056  00000+0  00000+0 0  9995", "line2": "2 26360  55.0525  26.3370 0038892 243.1637 157.4834  2.00566595187789"}}, "geometry": {"type": "Point", "coordinates": [-132.91936050053707, -26.888127502779977]}}, {"type": "Feature", "properties": {"norad_id": 26407, "name": "GPS BIIR-5  (PRN 22)", "group": "gps-ops", "lat": 41.865141604486276, "lon": -98.86222514462766, "alt_km": 20301.29331275002, "timestamp": "2025-12-25T20:42:38.946500+00:00", "meta": {"OBJECT_NAME": "GPS BIIR-5  (PRN 22)", "OBJECT_ID": "2000-040A", "EPOCH": "2025-12-25T00:58:38.180352", "MEAN_MOTION": 2.00568081, "ECCENTRICITY": 0.01253464, "INCLINATION": 54.8881, "RA_OF_ASC_NODE": 222.0798, "ARG_OF_PERICENTER": 302.0038, "MEAN_ANOMALY": 237.7094, "EPHEMERIS_TYPE": 0, "CLASSIFICATION_TYPE": "U", "NORAD_CAT_ID": 26407, "ELEMENT_SET_NO": 999, "REV_AT_EPOCH": 18645, "BSTAR": 0, "MEAN_MOTION_DOT": 6.7e-07, "MEAN_MOTION_DDOT": 0}, "tle": {"line1": "1 26407U 00040A   25359.04071968  .00000067  00000+0  00000+0 0  9993", "line2": "2 26407  54.8881 222.0798 0125346 302.0038 237.7094  2.00568081186458"}}, "geometry": {"type": "Point", "coordinates": [-98.86222514462766, 41.865141604486276]}}, {"type": "Feature", "properties": {"norad_id": 27663, "name": "GPS BIIR-8  (PRN 16)", "group": "gps-ops", "lat": -8.5977020467437, "lon": 47.96616894702891, "alt_km": 20474.923842594206, "timestamp": "2025-12-25T20:42:38.946521+00:00", "meta": {"OBJECT_NAME": "GPS BIIR-8  (PRN 16)", "OBJECT_ID": "2003-005A", "EPOCH": "2025-12-24T14:50:30.961824", "MEAN_MOTION": 2.00570207, "ECCENTRICITY": 0.01478624, "INCLINATION": 54.9207, "RA_OF_ASC_NODE": 221.9058, "ARG_OF_PERICENTER": 51.9747, "MEAN_ANOMALY": 318.7946, "EPHEMERIS_TYPE": 0, "CLASSIFICATION_TYPE": "U", "NORAD_CAT_ID": 27663, "ELEMENT_SET_NO": 999, "REV_AT_EPOCH": 16781, "BSTAR": 0, "MEAN_MOTION_DOT": 6.6e-07, "MEAN_MOTION_DDOT": 0}, "tle": {"line1": "1 27663U 03005A   25358.61841391  .00000066  00000+0  00000+0 0  9998", "line2": "2 27663  54.9207 221.9058 0147862  51.9747 318.7946  2.00570207167815"}}, "geometry": {"type": "Point", "coordinates": [47.96616894702891, -8.5977020467437]}}, {"type": "Feature", "properties": {"norad_id": 28190, "name": "GPS BIIR-11 (PRN 19)", "group": "gps-ops", "lat": -10.110437305954758, "lon": -84.49144745742949, "alt_km": 20472.861076542973, "timestamp": "2025-12-25T20:42:38.946541+00:00", "meta": {"OBJECT_NAME": "GPS BIIR-11 (PRN 19)", "OBJECT_ID": "2004-009A", "EPOCH": "2025-12-25T00:56:53.599200", "MEAN_MOTION": 2.00560295, "ECCENTRICITY": 0.01085715, "INCLINATION": 54.9745, "RA_OF_ASC_NODE": 282.7233, "ARG_OF_PERICENTER": 167.849, "MEAN_ANOMALY": 305.251, "EPHEMERIS_TYPE": 0, "CLASSIFICATION_TYPE": "U", "NORAD_CAT_ID": 28190, "ELEMENT_SET_NO": 999, "REV_AT_EPOCH": 15945, "BSTAR": 0, "MEAN_MOTION_DOT": -2.6e-07, "MEAN_MOTION_DDOT": 0}, "tle": {"line1": "1 28190U 04009A   25359.03950925 -.00000026  00000+0  00000+0 0  9997", "line2": "2 28190  54.9745 282.7233 0108571 167.8490 305.2510  2.00560295159459"}}, "geometry": {"type": "Point", "coordinates": [-84.49144745742949, -10.110437305954758]}}, {"type": "Feature", "properties": {"norad_id": 28474, "name": "GPS BIIR-13 (PRN 02)", "group": "gps-ops", "lat": 39.06645548970405, "lon": 6.163644252835088, "alt_km": 20250.96703359911, "timestamp": "2025-12-25T20:42:38.946560+00:00", "meta": {"OBJECT_NAME": "GPS BIIR-13 (PRN 02)", "OBJECT_ID": "2004-045A", "EPOCH": "2025-12-25T06:51:33.527808", "MEAN_MOTION": 2.00570039, "ECCENTRICITY": 0.01709889, "INCLINATION": 55.2344, "RA_OF_ASC_NODE": 331.9013, "ARG_OF_PERICENTER": 309.8108, "MEAN_ANOMALY": 41.6127, "EPHEMERIS_TYPE": 0, "CLASSIFICATION_TYPE": "U", "NORAD_CAT_ID": 28474, "ELEMENT_SET_NO": 999, "REV_AT_EPOCH": 15493, "BSTAR": 0, "MEAN_MOTION_DOT": -5.9e-07, "MEAN_MOTION_DDOT": 0}, "tle": {"line1": "1 28474U 04045A   25359.28580472 -.00000059  00000+0  00000+0 0  9991", "line2": "2 28474  55.2344 331.9013 0170988 309.8108  41.6127  2.00570039154931"}}, "geometry": {"type": "Point", "coordinates": [6.163644252835088, 39.06645548970405]}}, {"type": "Feature", "properties": {"norad_id": 28874, "name": "GPS BIIRM-1 (PRN 17)", "group": "gps-ops", "lat": 7.2684789575462565, "lon": -74.71662243321573, "alt_km": 20085.576824441712, "timestamp": "2025-12-25T20:42:38.946578+00:00", "meta": {"OBJECT_NAME": "GPS BIIRM-1 (PRN 17)", "OBJECT_ID": "2005-038A", "EPOCH": "2025-12-24T20:45:31.120992", "MEAN_MOTION": 2.00577585, "ECCENTRICITY": 0.0131256, "INCLINATION": 55.0211, "RA_OF_ASC_NODE": 280.2128, "ARG_OF_PERICENTER": 293.8377, "MEAN_ANOMALY": 72.9738, "EPHEMERIS_TYPE": 0, "CLASSIFICATION_TYPE": "U", "NORAD_CAT_ID": 28874, "ELEMENT_SET_NO": 999, "REV_AT_EPOCH": 14834, "BSTAR": 0, "MEAN_MOTION_DOT": -2.3e-07, "MEAN_MOTION_DDOT": 0}, "tle": {"line1": "1 28874U 05038A   25358.86494353 -.00000023  00000+0  00000+0 0  9994", "line2": "2 28874  55.0211 280.2128 0131256 293.8377  72.9738  2.00577585148340"}}, "geometry": {"type": "Point", "coordinates": [-74.71662243321573, 7.2684789575462565]}}, {"type": "Feature", "properties": {"norad_id": 29486, "name": "GPS BIIRM-2 (PRN 31)", "group": "gps-ops", "lat": -54.660335297340005, "lon": 66.13462220955586, "alt_km": 20416.57294769873, "timestamp": "2025-12-25T20:42:38.946590+00:00", "meta": {"OBJECT_NAME": "GPS BIIRM-2 (PRN 31)", "OBJECT_ID": "2006-042A", "EPOCH": "2025-12-24T23:42:55.072224", "MEAN_MOTION": 2.00553643, "ECCENTRICITY": 0.01072754, "INCLINATION": 54.6955, "RA_OF_ASC_NODE": 158.2549, "ARG_OF_PERICENTER": 52.2355, "MEAN_ANOMALY": 305.6317, "EPHEMERIS_TYPE": 0, "CLASSIFICATION_TYPE": "U", "NORAD_CAT_ID": 29486, "ELEMENT_SET_NO": 999, "REV_AT_EPOCH": 14089, "BSTAR": 0, "MEAN_MOTION_DOT": 9.7e-07, "MEAN_MOTION_DDOT": 0}, "tle": {"line1": "1 29486U 06042A   25358.98813741  .00000097  00000+0  00000+0 0  9999", "line2": "2 29486  54.6955 158.2549 0107275  52.2355 305.6317  2.00553643140898"}}, "geometry": {"type": "Point", "coordinates": [66.13462220955586, -54.660335297340005]}}, {"type": "Feature", "properties": {"norad_id": 29601, "name": "GPS BIIRM-3 (PRN 12)", "group": "gps-ops", "lat": -26.364481462912984, "lon": -159.45285932010373, "alt_km": 20301.39541230513, "timestamp": "2025-12-25T20:42:38.946602+00:00", "meta": {"OBJECT_NAME": "GPS BIIRM-3 (PRN 12)", "OBJECT_ID": "2006-052A", "EPOCH": "2025-12-23T21:56:47.372352", "MEAN_MOTION": 2.0057433, "ECCENTRICITY": 0.00880015, "INCLINATION": 54.9684, "RA_OF_ASC_NODE": 220.9547, "ARG_OF_PERICENTER": 87.5747, "MEAN_ANOMALY": 273.5181, "EPHEMERIS_TYPE": 0, "CLASSIFICATION_TYPE": "U", "NORAD_CAT_ID": 29601, "ELEMENT_SET_NO": 999, "REV_AT_EPOCH": 13989, "BSTAR": 0, "MEAN_MOTION_DOT": 6.7e-07, "MEAN_MOTION_DDOT": 0}, "tle": {"line1": "1 29601U 06052A   25357.91443718  .00000067  00000+0  00000+0 0  9991", "line2": "2 29601  54.9684 220.9547 0088001  87.5747 273.5181  2.00574330139891"}}, "geometry": {"type": "Point", "coordinates": [-159.45285932010373, -26.364481462912984]}}, {"type": "Feature", "properties": {"norad_id": 32260, "name": "GPS BIIRM-4 (PRN 15)", "group": "gps-ops", "lat": 50.1413587242653, "lon": -153.32178252415704, "alt_km": 19774.265446090656, "timestamp": "2025-12-25T20:42:38.946614+00:00", "meta": {"OBJECT_NAME": "GPS BIIRM-4 (PRN 15)", "OBJECT_ID": "2007-047A", "EPOCH": "2025-12-23T05:22:00.882048", "MEAN_MOTION": 2.00564099, "ECCENTRICITY": 0.01640403, "INCLINATION": 53.9621, "RA_OF_ASC_NODE": 87.3254, "ARG_OF_PERICENTER": 85.3777, "MEAN_ANOMALY": 276.5133, "EPHEMERIS_TYPE": 0, "CLASSIFICATION_TYPE": "U", "NORAD_CAT_ID": 32260, "ELEMENT_SET_NO": 999, "REV_AT_EPOCH": 13328, "BSTAR": 0, "MEAN_MOTION_DOT": -6e-08, "MEAN_MOTION_DDOT": 0}, "tle": {"line1": "1 32260U 07047A   25357.22362132 -.00000006  00000+0  00000+0 0  9999", "line2": "2 32260  53.9621  87.3254 0164040  85.3777 276.5133  2.00564099133281"}}, "geometry": {"type": "Point", "coordinates": [-153.32178252415704, 50.1413587242653]}}]}